IRIDIUM 921 [-]         
1 24873U 97034E   23292.35039220  .00027962  00000+0  10653-2 0  9991
2 24873  86.3889  46.4362 0006842  91.4703 268.7327 15.26566120438157
IRIDIUM 26 [-]          
1 24903U 97043A   23292.28923216  .00000783  00000+0  26256-3 0  9993
2 24903  86.4015   5.2483 0001998  89.2581 270.8845 14.36047147369612
IRIDIUM 22 [-]          
1 24907U 97043E   23292.29869320  .00000761  00000+0  26094-3 0  9999
2 24907  86.4021   8.2872 0002205  92.1152 268.0297 14.34954470369712
DUMMY MASS 1 [-]        
1 24925U 97048A   23292.38678367  .00001054  00000+0  11782-3 0  9997
2 24925  86.3353  55.6554 0008654 124.8881 235.3158 14.85882746414994
DUMMY MASS 2 [-]        
1 24926U 97048B   23292.38433905  .00001057  00000+0  11881-3 0  9998
2 24926  86.3351  57.1576 0009167 134.6255 225.5719 14.85643774414785
IRIDIUM 29 [-]          
1 24944U 97051A   23292.37817955  .00000698  00000+0  23636-3 0  9993
2 24944  86.3997  38.2209 0002355  91.0764 269.0702 14.35411453366195
IRIDIUM 33 [-]          
1 24946U 97051C   23292.39490150  .00000698  00000+0  24232-3 0  9994
2 24946  86.3913  37.4893 0005876 253.3598 106.6953 14.34149712365754
IRIDIUM 28 [-]          
1 24948U 97051E   23292.33227060  .00000964  00000+0  32319-3 0  9999
2 24948  86.4006  36.1055 0001704  91.8704 268.2689 14.36348283366709
